{"fetched_at":"2026-07-06T18:35:47.922Z","source":"https://celestrak.org/NORAD/elements/gp.php?NAME=PLEIADES&FORMAT=JSON","constellation":"pleiades","records":[{"OBJECT_NAME":"PLEIADES 1A","OBJECT_ID":"2011-076F","EPOCH":"2026-07-06T08:04:53.308704","CLASSIFICATION_TYPE":"U","MEAN_MOTION":14.58544442,"ECCENTRICITY":0.00017553,"INCLINATION":98.1967,"RA_OF_ASC_NODE":262.1822,"ARG_OF_PERICENTER":85.3321,"MEAN_ANOMALY":349.3614,"EPHEMERIS_TYPE":0,"NORAD_CAT_ID":38012,"ELEMENT_SET_NO":999,"REV_AT_EPOCH":77478,"BSTAR":0.00012838942,"MEAN_MOTION_DOT":0.00000551,"MEAN_MOTION_DDOT":0},{"OBJECT_NAME":"PLEIADES 1B","OBJECT_ID":"2012-068A","EPOCH":"2026-07-06T06:54:30.995136","CLASSIFICATION_TYPE":"U","MEAN_MOTION":14.58573425,"ECCENTRICITY":0.00016559,"INCLINATION":98.1938,"RA_OF_ASC_NODE":262.0766,"ARG_OF_PERICENTER":83.0411,"MEAN_ANOMALY":277.0976,"EPHEMERIS_TYPE":0,"NORAD_CAT_ID":39019,"ELEMENT_SET_NO":999,"REV_AT_EPOCH":72363,"BSTAR":0.000099777013,"MEAN_MOTION_DOT":0.00000418,"MEAN_MOTION_DDOT":0}]}
